NORAD_CAT_ID,OBJECT_NAME,OBJECT_TYPE,EPOCH,MEAN_MOTION,ECCENTRICITY,INCLINATION,RA_OF_ASC_NODE,ARG_OF_PERICENTER,MEAN_ANOMALY,BSTAR,MEAN_MOTION_DOT,MEAN_MOTION_DDOT,TLE_LINE0,TLE_LINE1,TLE_LINE2,SEMIMAJOR_AXIS,PERIOD,APOGEE,PERIGEE,DECAYED
53012.0,STARLINK-4271,PAYLOAD,2022-09-07 22:00:00,15.28756395,0.0001447,53.2176,75.2602,67.6051,154.6849,-0.040893,-0.01062403,0.0,0 STARLINK-4271,1 53012U 22076AC  22250.91667824 -.01062403  00000-0 -40893-1 0  9995,2 53012  53.2176  75.2602 0001447  67.6051 154.6849 15.28756395  1302,6857.666,94.194,480.523,478.539,0.0
53012.0,STARLINK-4271,PAYLOAD,2022-09-08 14:00:01,15.27239212,0.0001291999999999,53.2177,72.1841,73.3733,218.1291,-0.042959,-0.01064963,0.0,0 STARLINK-4271,1 53012U 22076AC  22251.58334491 -.01064963  00000-0 -42959-1 0  9998,2 53012  53.2177  72.1841 0001292  73.3733 218.1291 15.27239212  1303,6862.206999999999,94.288,484.958,483.185,0.0
53012.0,STARLINK-4271,PAYLOAD,2022-09-08 22:00:00,15.26478487,0.000121,53.2175,70.6513,80.8638,243.8753,-0.043885,-0.01063095,0.0,0 STARLINK-4271,1 53012U 22076AC  22251.91667824 -.01063095  00000-0 -43885-1 0  9998,2 53012  53.2175  70.6513 0001210  80.8638 243.8753 15.26478487 10415,6864.486,94.335,487.182,485.521,0.0
53012.0,STARLINK-4271,PAYLOAD,2022-09-09 14:00:01,15.24961463,0.0001271,53.2177,67.5862,62.3649,326.1106,-0.046104,-0.01066366,0.0,0 STARLINK-4271,1 53012U 22076AC  22252.58334491 -.01066366  00000-0 -46104-1 0  9994,2 53012  53.2177  67.5862 0001271  62.3649 326.1106 15.24961463  1307,6869.038000000001,94.429,491.776,490.03,0.0
53012.0,STARLINK-4271,PAYLOAD,2022-09-09 20:00:01,15.243913,0.0001324,53.2175,66.4405,64.6112,256.8237,-0.046854,-0.01065358,0.0,0 STARLINK-4271,1 53012U 22076AC  22252.83334491 -.01065358  00000-0 -46854-1 0  9994,2 53012  53.2175  66.4405 0001324  64.6112 256.8237 15.24391300 10553,6870.751,94.464,493.526,491.706,0.0
53012.0,STARLINK-4271,PAYLOAD,2022-09-09 22:00:00,15.24198817,0.0001364,53.2174,66.0585,56.7578,2.2174,-0.046939,-0.01061488,0.0,0 STARLINK-4271,1 53012U 22076AC  22252.91667824 -.01061488  00000-0 -46939-1 0  9996,2 53012  53.2174  66.0585 0001364  56.7578   2.2174 15.24198817  1303,6871.329000000002,94.476,494.132,492.257,0.0
53012.0,STARLINK-4271,PAYLOAD,2022-09-10 14:00:01,15.22682046,0.0001415,53.2176,63.004,63.8568,53.3788,-0.049298,-0.01065078,0.0,0 STARLINK-4271,1 53012U 22076AC  22253.58334491 -.01065078  00000-0 -49298-1 0  9991,2 53012  53.2176  63.0040 0001415  63.8568  53.3788 15.22682046 10660,6875.892,94.57,498.73,496.784,0.0
53012.0,STARLINK-4271,PAYLOAD,2022-09-10 22:00:00,15.21918045,0.0001357,53.2174,61.4816,76.648,68.3496,-0.050036,-0.01057435,0.0,0 STARLINK-4271,1 53012U 22076AC  22253.91667824 -.01057435  00000-0 -50036-1 0  9997,2 53012  53.2174  61.4816 0001357  76.6480  68.3496 15.21918045  1304,6878.193,94.617,500.991,499.124,0.0
53012.0,STARLINK-4271,PAYLOAD,2022-09-11 14:00:01,15.20402193,0.0001458,53.2177,58.4381,71.017,126.7644,-0.052598,-0.0106251,0.0,0 STARLINK-4271,1 53012U 22076AC  22254.58334491 -.01062510  00000-0 -52598-1 0  9997,2 53012  53.2177  58.4381 0001458  71.0170 126.7644 15.20402193  1302,6882.764,94.712,505.632,503.625,0.0
53012.0,STARLINK-4271,PAYLOAD,2022-09-11 22:00:00,15.19639404,0.0001438,53.2174,56.9208,68.5361,154.2689,-0.0534549999999999,-0.01056479,0.0,0 STARLINK-4271,1 53012U 22076AC  22254.91667824 -.01056479  00000-0 -53455-1 0  9993,2 53012  53.2174  56.9208 0001438  68.5361 154.2689 15.19639404  1301,6885.066999999999,94.759,507.922,505.941,0.0
53012.0,STARLINK-4271,PAYLOAD,2022-09-12 12:00:00,15.18313277,0.000146,53.2177,54.26600000000001,73.2425,101.1568,-0.055847,-0.01074898,0.0,0 STARLINK-4271,1 53012U 22076AC  22255.50001157 -.01074898  00000-0 -55847-1 0  9992,2 53012  53.2177  54.2660 0001460  73.2425 101.1568 15.18313277 10961,6889.075,94.842,511.946,509.934,0.0
53012.0,STARLINK-4271,PAYLOAD,2022-09-12 14:00:01,15.18123327,0.0001355,53.2176,53.88800000000001,76.4411,193.6718,-0.056151,-0.01074803,0.0,0 STARLINK-4271,1 53012U 22076AC  22255.58334491 -.01074803  00000-0 -56151-1 0  9995,2 53012  53.2176  53.8880 0001355  76.4411 193.6718 15.18123327  1308,6889.65,94.854,512.448,510.581,0.0
53012.0,STARLINK-4271,PAYLOAD,2022-09-12 22:00:00,15.17393777,0.0001317,53.2176,52.3743,73.4405,218.9409,-0.059522,-0.01112504,0.0,0 STARLINK-4271,1 53012U 22076AC  22255.91667824 -.01112504  00000-0 -59522-1 0  9997,2 53012  53.2176  52.3743 0001317  73.4405 218.9409 15.17393777  1303,6891.858,94.9,514.63,512.815,0.0
53012.0,STARLINK-4271,PAYLOAD,2022-09-13 06:00:00,15.16602638,0.0001217,53.2175,50.8627,78.8014,234.9703,-0.058512,-0.01072106,0.0,0 STARLINK-4271,1 53012U 22076AC  22256.25001157 -.01072106  00000-0 -58512-1 0  9997,2 53012  53.2175  50.8627 0001217  78.8014 234.9703 15.16602638 11078,6894.254,94.949,516.9580000000002,515.28,0.0
53012.0,STARLINK-4271,PAYLOAD,2022-09-13 14:00:01,15.15845102,0.0001247,53.2177,49.3539,75.4167,258.8136,-0.05997,-0.01074997,0.0,0 STARLINK-4271,1 53012U 22076AC  22256.58334491 -.01074997  00000-0 -59970-1 0  9992,2 53012  53.2177  49.3539 0001247  75.4167 258.8136 15.15845102  1304,6896.551,94.997,519.276,517.556,0.0
53012.0,STARLINK-4271,PAYLOAD,2022-09-13 22:00:00,15.15084992,0.0001284999999999,53.2173,47.8469,62.0671,291.7098,-0.061183,-0.01073336,0.0,0 STARLINK-4271,1 53012U 22076AC  22256.91667824 -.01073336  00000-0 -61183-1 0  9993,2 53012  53.2173  47.8469 0001285  62.0671 291.7098 15.15084992  1304,6898.858,95.044,521.609,519.836,0.0
53012.0,STARLINK-4271,PAYLOAD,2022-09-14 06:00:00,15.14323531,0.0001149,53.2174,46.339,90.8376,281.5761,-0.062388,-0.01071185,0.0,0 STARLINK-4271,1 53012U 22076AC  22257.25001157 -.01071185  00000-0 -62388-1 0  9990,2 53012  53.2174  46.3390 0001149  90.8376 281.5761 15.14323531 11222,6901.17,95.092,523.828,522.242,0.0
53012.0,STARLINK-4271,PAYLOAD,2022-09-14 14:00:01,15.1365066,0.000108,53.2182,44.8336,85.2969,304.7905,-0.070716,-0.01181679,0.0,0 STARLINK-4271,1 53012U 22076AC  22257.58334491 -.01181679  00000-0 -70716-1 0  9990,2 53012  53.2182  44.8336 0001080  85.2969 304.7905 15.13650660  1305,6903.215,95.134,525.826,524.335,0.0
53012.0,STARLINK-4271,PAYLOAD,2022-09-14 22:00:00,15.12782204,0.0001452,53.2175,43.3318,59.957,346.9986,-0.06306,-0.01039078,0.0,0 STARLINK-4271,1 53012U 22076AC  22257.91667824 -.01039078  00000-0 -63060-1 0  9995,2 53012  53.2175  43.3318 0001452  59.9570 346.9986 15.12782204  1306,6905.857,95.189,528.725,526.719,0.0
53012.0,STARLINK-4271,PAYLOAD,2022-09-15 06:00:00,15.12082086,0.0001356,53.218,41.8295,63.2018,359.6196,-0.069631,-0.01118498,0.0,0 STARLINK-4271,1 53012U 22076AC  22258.25001157 -.01118498  00000-0 -69631-1 0  9998,2 53012  53.2180  41.8295 0001356  63.2018 359.6196 15.12082086 11370,6907.988,95.233,530.79,528.9169999999998,0.0
53012.0,STARLINK-4271,PAYLOAD,2022-09-15 14:00:01,15.11344805,0.0001266,53.2182,40.3312,82.619,355.1737,-0.073067,-0.01147292,0.0,0 STARLINK-4271,1 53012U 22076AC  22258.58334491 -.01147292  00000-0 -73067-1 0  9996,2 53012  53.2182  40.3312 0001266  82.6190 355.1737 15.11344805  1305,6910.235,95.279,532.975,531.225,0.0
53012.0,STARLINK-4271,PAYLOAD,2022-09-15 22:00:00,15.1052718,0.000129,53.2173,38.8365,85.8375,6.0572,-0.06944,-0.01071721,0.0,0 STARLINK-4271,1 53012U 22076AC  22258.91667824 -.01071721  00000-0 -69440-1 0  9995,2 53012  53.2173  38.8365 0001290  85.8375   6.0572 15.10527180  1309,6912.728,95.331,535.485,533.701,0.0
53012.0,STARLINK-4271,PAYLOAD,2022-09-16 02:00:01,15.10152215,0.0001349,53.2176,38.0863,74.9023,203.6863,-0.071012,-0.01083692,0.0,0 STARLINK-4271,1 53012U 22076AC  22259.08334491 -.01083692  00000-0 -71012-1 0  9993,2 53012  53.2176  38.0863 0001349  74.9023 203.6863 15.10152215 11505,6913.871999999999,95.355,536.67,534.805,0.0
53012.0,STARLINK-4271,PAYLOAD,2022-09-16 14:00:01,15.08985093,0.0001412,53.2175,35.8432,76.5849,40.7385,-0.0145069999999999,-0.00224931,0.0,0 STARLINK-4271,1 53012U 22076AC  22259.58334491 -.00224931  00000-0 -14507-1 0  9996,2 53012  53.2175  35.8432 0001412  76.5849  40.7385 15.08985093  1307,6917.437,95.428,540.279,538.325,0.0
53012.0,STARLINK-4271,PAYLOAD,2022-09-16 16:00:00,15.08995235,0.0001621,53.2181,35.4662,86.169,124.03,-0.013468,-0.00209355,0.0,0 STARLINK-4271,1 53012U 22076AC  22259.66667824 -.00209355  00000-0 -13468-1 0  9992,2 53012  53.2181  35.4662 0001621  86.1690 124.0300 15.08995235 11592,6917.406,95.428,540.3919999999998,538.15,0.0
53012.0,STARLINK-4271,PAYLOAD,2022-09-16 22:00:00,15.08834979,0.000136,53.2174,34.3463,86.995,41.9974,0.00022583,3.308e-05,0.0,0 STARLINK-4271,1 53012U 22076AC  22259.91667824  .00003308  00000-0  22583-3 0  9998,2 53012  53.2174  34.3463 0001360  86.9950  41.9974 15.08834979  1307,6917.896,95.438,540.702,538.82,0.0
53012.0,STARLINK-4271,PAYLOAD,2022-09-17 08:00:01,15.08858088,0.0001455,53.2184,32.4652,82.6869,150.8233,-0.001771,-0.00028377,0.0,0 STARLINK-4271,1 53012U 22076AC  22260.33334491 -.00028377  00000-0 -17710-2 0  9997,2 53012  53.2184  32.4652 0001455  82.6869 150.8233 15.08858088 11692,6917.825,95.436,540.697,538.684,0.0
53012.0,STARLINK-4271,PAYLOAD,2022-09-17 14:00:01,15.08842981,0.0001574,53.2184,31.3444,75.81,76.4124,-0.0048656,-0.00076904,0.0,0 STARLINK-4271,1 53012U 22076AC  22260.58334491 -.00076904  00000-0 -48656-2 0  9996,2 53012  53.2184  31.3444 0001574  75.8100  76.4124 15.08842981  1307,6917.871,95.437,540.825,538.6469999999998,0.0
53012.0,STARLINK-4271,PAYLOAD,2022-09-17 22:00:00,15.08809161,0.0001545,53.2182,29.8483,71.0605,92.7206,-0.0026526999999999,-0.00042223,0.0,0 STARLINK-4271,1 53012U 22076AC  22260.91667824 -.00042223  00000-0 -26527-2 0  9992,2 53012  53.2182  29.8483 0001545  71.0605  92.7206 15.08809161 11784,6917.975,95.44,540.908,538.771,0.0
